<?xml version="1.0" encoding="UTF-8"?>
<ndm xmlns:xsi="http://www.w3.org/2001/XMLSchema-instance" xsi:noNamespaceSchemaLocation="https://sanaregistry.org/r/ndmxml_unqualified/ndmxml-2.0.0-master-2.0.xsd">
<omm id="CCSDS_OMM_VERS" version="2.0">
<header><CREATION_DATE/><ORIGINATOR/></header><body><segment><metadata><OBJECT_NAME>KUIPER-00027</OBJECT_NAME><OBJECT_ID>2025-088S</OBJECT_ID><CENTER_NAME>EARTH</CENTER_NAME><REF_FRAME>TEME</REF_FRAME><TIME_SYSTEM>UTC</TIME_SYSTEM><MEAN_ELEMENT_THEORY>SGP4</MEAN_ELEMENT_THEORY></metadata><data><meanElements><EPOCH>2025-07-15T09:37:01.163424</EPOCH><MEAN_MOTION>15.37837200</MEAN_MOTION><ECCENTRICITY>.0002307</ECCENTRICITY><INCLINATION>51.8711</INCLINATION><RA_OF_ASC_NODE>83.6565</RA_OF_ASC_NODE><ARG_OF_PERICENTER>65.8231</ARG_OF_PERICENTER><MEAN_ANOMALY>294.2997</MEAN_ANOMALY></meanElements><tleParameters><EPHEMERIS_TYPE>0</EPHEMERIS_TYPE><CLASSIFICATION_TYPE>U</CLASSIFICATION_TYPE><NORAD_CAT_ID>63740</NORAD_CAT_ID><ELEMENT_SET_NO>999</ELEMENT_SET_NO><REV_AT_EPOCH>1221</REV_AT_EPOCH><BSTAR>.3437E-3</BSTAR><MEAN_MOTION_DOT>.12611E-3</MEAN_MOTION_DOT><MEAN_MOTION_DDOT>0</MEAN_MOTION_DDOT></tleParameters></data></segment></body></omm>
<omm id="CCSDS_OMM_VERS" version="2.0">
<header><CREATION_DATE/><ORIGINATOR/></header><body><segment><metadata><OBJECT_NAME>KUIPER-00028</OBJECT_NAME><OBJECT_ID>2025-088T</OBJECT_ID><CENTER_NAME>EARTH</CENTER_NAME><REF_FRAME>TEME</REF_FRAME><TIME_SYSTEM>UTC</TIME_SYSTEM><MEAN_ELEMENT_THEORY>SGP4</MEAN_ELEMENT_THEORY></metadata><data><meanElements><EPOCH>2025-07-14T22:30:26.929152</EPOCH><MEAN_MOTION>15.37931372</MEAN_MOTION><ECCENTRICITY>.0002038</ECCENTRICITY><INCLINATION>51.8703</INCLINATION><RA_OF_ASC_NODE>85.8029</RA_OF_ASC_NODE><ARG_OF_PERICENTER>51.5657</ARG_OF_PERICENTER><MEAN_ANOMALY>308.5513</MEAN_ANOMALY></meanElements><tleParameters><EPHEMERIS_TYPE>0</EPHEMERIS_TYPE><CLASSIFICATION_TYPE>U</CLASSIFICATION_TYPE><NORAD_CAT_ID>63741</NORAD_CAT_ID><ELEMENT_SET_NO>999</ELEMENT_SET_NO><REV_AT_EPOCH>1255</REV_AT_EPOCH><BSTAR>.28758E-3</BSTAR><MEAN_MOTION_DOT>.10517E-3</MEAN_MOTION_DOT><MEAN_MOTION_DDOT>0</MEAN_MOTION_DDOT></tleParameters></data></segment></body></omm>
<omm id="CCSDS_OMM_VERS" version="2.0">
<header><CREATION_DATE/><ORIGINATOR/></header><body><segment><metadata><OBJECT_NAME>KUIPER-00029</OBJECT_NAME><OBJECT_ID>2025-088U</OBJECT_ID><CENTER_NAME>EARTH</CENTER_NAME><REF_FRAME>TEME</REF_FRAME><TIME_SYSTEM>UTC</TIME_SYSTEM><MEAN_ELEMENT_THEORY>SGP4</MEAN_ELEMENT_THEORY></metadata><data><meanElements><EPOCH>2025-07-14T09:32:52.344384</EPOCH><MEAN_MOTION>15.36733878</MEAN_MOTION><ECCENTRICITY>.0005158</ECCENTRICITY><INCLINATION>51.8690</INCLINATION><RA_OF_ASC_NODE>88.9171</RA_OF_ASC_NODE><ARG_OF_PERICENTER>39.6239</ARG_OF_PERICENTER><MEAN_ANOMALY>320.5124</MEAN_ANOMALY></meanElements><tleParameters><EPHEMERIS_TYPE>0</EPHEMERIS_TYPE><CLASSIFICATION_TYPE>U</CLASSIFICATION_TYPE><NORAD_CAT_ID>63742</NORAD_CAT_ID><ELEMENT_SET_NO>999</ELEMENT_SET_NO><REV_AT_EPOCH>1199</REV_AT_EPOCH><BSTAR>.26196E-3</BSTAR><MEAN_MOTION_DOT>.9172E-4</MEAN_MOTION_DOT><MEAN_MOTION_DDOT>0</MEAN_MOTION_DDOT></tleParameters></data></segment></body></omm>
<omm id="CCSDS_OMM_VERS" version="2.0">
<header><CREATION_DATE/><ORIGINATOR/></header><body><segment><metadata><OBJECT_NAME>KUIPER-00030</OBJECT_NAME><OBJECT_ID>2025-088V</OBJECT_ID><CENTER_NAME>EARTH</CENTER_NAME><REF_FRAME>TEME</REF_FRAME><TIME_SYSTEM>UTC</TIME_SYSTEM><MEAN_ELEMENT_THEORY>SGP4</MEAN_ELEMENT_THEORY></metadata><data><meanElements><EPOCH>2025-07-15T14:00:01.000224</EPOCH><MEAN_MOTION>15.20840282</MEAN_MOTION><ECCENTRICITY>.0010095</ECCENTRICITY><INCLINATION>51.8789</INCLINATION><RA_OF_ASC_NODE>85.2755</RA_OF_ASC_NODE><ARG_OF_PERICENTER>20.5202</ARG_OF_PERICENTER><MEAN_ANOMALY>142.7533</MEAN_ANOMALY></meanElements><tleParameters><EPHEMERIS_TYPE>0</EPHEMERIS_TYPE><CLASSIFICATION_TYPE>U</CLASSIFICATION_TYPE><NORAD_CAT_ID>63743</NORAD_CAT_ID><ELEMENT_SET_NO>999</ELEMENT_SET_NO><REV_AT_EPOCH>1242</REV_AT_EPOCH><BSTAR>-.35015E-1</BSTAR><MEAN_MOTION_DOT>-.731264E-2</MEAN_MOTION_DOT><MEAN_MOTION_DDOT>0</MEAN_MOTION_DDOT></tleParameters></data></segment></body></omm>
<omm id="CCSDS_OMM_VERS" version="2.0">
<header><CREATION_DATE/><ORIGINATOR/></header><body><segment><metadata><OBJECT_NAME>KUIPER-00031</OBJECT_NAME><OBJECT_ID>2025-088W</OBJECT_ID><CENTER_NAME>EARTH</CENTER_NAME><REF_FRAME>TEME</REF_FRAME><TIME_SYSTEM>UTC</TIME_SYSTEM><MEAN_ELEMENT_THEORY>SGP4</MEAN_ELEMENT_THEORY></metadata><data><meanElements><EPOCH>2025-07-15T02:05:42.858240</EPOCH><MEAN_MOTION>15.37456142</MEAN_MOTION><ECCENTRICITY>.0004162</ECCENTRICITY><INCLINATION>51.8706</INCLINATION><RA_OF_ASC_NODE>85.2955</RA_OF_ASC_NODE><ARG_OF_PERICENTER>38.5757</ARG_OF_PERICENTER><MEAN_ANOMALY>321.5527</MEAN_ANOMALY></meanElements><tleParameters><EPHEMERIS_TYPE>0</EPHEMERIS_TYPE><CLASSIFICATION_TYPE>U</CLASSIFICATION_TYPE><NORAD_CAT_ID>63744</NORAD_CAT_ID><ELEMENT_SET_NO>999</ELEMENT_SET_NO><REV_AT_EPOCH>1210</REV_AT_EPOCH><BSTAR>.2687E-3</BSTAR><MEAN_MOTION_DOT>.9646E-4</MEAN_MOTION_DOT><MEAN_MOTION_DDOT>0</MEAN_MOTION_DDOT></tleParameters></data></segment></body></omm>
<omm id="CCSDS_OMM_VERS" version="2.0">
<header><CREATION_DATE/><ORIGINATOR/></header><body><segment><metadata><OBJECT_NAME>KUIPER-00032</OBJECT_NAME><OBJECT_ID>2025-088X</OBJECT_ID><CENTER_NAME>EARTH</CENTER_NAME><REF_FRAME>TEME</REF_FRAME><TIME_SYSTEM>UTC</TIME_SYSTEM><MEAN_ELEMENT_THEORY>SGP4</MEAN_ELEMENT_THEORY></metadata><data><meanElements><EPOCH>2025-07-14T17:05:17.778048</EPOCH><MEAN_MOTION>15.37239986</MEAN_MOTION><ECCENTRICITY>.0005043</ECCENTRICITY><INCLINATION>51.8681</INCLINATION><RA_OF_ASC_NODE>87.2709</RA_OF_ASC_NODE><ARG_OF_PERICENTER>27.6152</ARG_OF_PERICENTER><MEAN_ANOMALY>332.5101</MEAN_ANOMALY></meanElements><tleParameters><EPHEMERIS_TYPE>0</EPHEMERIS_TYPE><CLASSIFICATION_TYPE>U</CLASSIFICATION_TYPE><NORAD_CAT_ID>63745</NORAD_CAT_ID><ELEMENT_SET_NO>999</ELEMENT_SET_NO><REV_AT_EPOCH>1304</REV_AT_EPOCH><BSTAR>.33908E-3</BSTAR><MEAN_MOTION_DOT>.12194E-3</MEAN_MOTION_DOT><MEAN_MOTION_DDOT>0</MEAN_MOTION_DDOT></tleParameters></data></segment></body></omm>
<omm id="CCSDS_OMM_VERS" version="2.0">
<header><CREATION_DATE/><ORIGINATOR/></header><body><segment><metadata><OBJECT_NAME>KUIPER-00033</OBJECT_NAME><OBJECT_ID>2025-088Y</OBJECT_ID><CENTER_NAME>EARTH</CENTER_NAME><REF_FRAME>TEME</REF_FRAME><TIME_SYSTEM>UTC</TIME_SYSTEM><MEAN_ELEMENT_THEORY>SGP4</MEAN_ELEMENT_THEORY></metadata><data><meanElements><EPOCH>2025-07-15T14:00:01.000224</EPOCH><MEAN_MOTION>14.80056349</MEAN_MOTION><ECCENTRICITY>.0004135</ECCENTRICITY><INCLINATION>51.8992</INCLINATION><RA_OF_ASC_NODE>95.0714</RA_OF_ASC_NODE><ARG_OF_PERICENTER>111.4237</ARG_OF_PERICENTER><MEAN_ANOMALY>177.1401</MEAN_ANOMALY></meanElements><tleParameters><EPHEMERIS_TYPE>0</EPHEMERIS_TYPE><CLASSIFICATION_TYPE>U</CLASSIFICATION_TYPE><NORAD_CAT_ID>63746</NORAD_CAT_ID><ELEMENT_SET_NO>999</ELEMENT_SET_NO><REV_AT_EPOCH>1248</REV_AT_EPOCH><BSTAR>.12856E-2</BSTAR><MEAN_MOTION_DOT>.9622E-4</MEAN_MOTION_DOT><MEAN_MOTION_DDOT>0</MEAN_MOTION_DDOT></tleParameters></data></segment></body></omm>
<omm id="CCSDS_OMM_VERS" version="2.0">
<header><CREATION_DATE/><ORIGINATOR/></header><body><segment><metadata><OBJECT_NAME>KUIPER-00034</OBJECT_NAME><OBJECT_ID>2025-088Z</OBJECT_ID><CENTER_NAME>EARTH</CENTER_NAME><REF_FRAME>TEME</REF_FRAME><TIME_SYSTEM>UTC</TIME_SYSTEM><MEAN_ELEMENT_THEORY>SGP4</MEAN_ELEMENT_THEORY></metadata><data><meanElements><EPOCH>2025-07-15T01:40:10.765920</EPOCH><MEAN_MOTION>15.37586094</MEAN_MOTION><ECCENTRICITY>.000242</ECCENTRICITY><INCLINATION>51.8715</INCLINATION><RA_OF_ASC_NODE>85.1864</RA_OF_ASC_NODE><ARG_OF_PERICENTER>58.5594</ARG_OF_PERICENTER><MEAN_ANOMALY>301.5629</MEAN_ANOMALY></meanElements><tleParameters><EPHEMERIS_TYPE>0</EPHEMERIS_TYPE><CLASSIFICATION_TYPE>U</CLASSIFICATION_TYPE><NORAD_CAT_ID>63747</NORAD_CAT_ID><ELEMENT_SET_NO>999</ELEMENT_SET_NO><REV_AT_EPOCH>1226</REV_AT_EPOCH><BSTAR>.22535E-3</BSTAR><MEAN_MOTION_DOT>.806E-4</MEAN_MOTION_DOT><MEAN_MOTION_DDOT>0</MEAN_MOTION_DDOT></tleParameters></data></segment></body></omm>

</ndm>
