KUIPER-00027            
1 63740U 25088S   25196.40070791  .00012611  00000+0  34370-3 0  9994
2 63740  51.8711  83.6565 0002307  65.8231 294.2997 15.37837200 12219
KUIPER-00028            
1 63741U 25088T   25195.93781168  .00010517  00000+0  28758-3 0  9995
2 63741  51.8703  85.8029 0002038  51.5657 308.5513 15.37931372 12550
KUIPER-00029            
1 63742U 25088U   25195.39782806  .00009172  00000+0  26196-3 0  9995
2 63742  51.8690  88.9171 0005158  39.6239 320.5124 15.36733878 11996
KUIPER-00030            
1 63743U 25088V   25196.58334491 -.00731264  00000+0 -35015-1 0  9995
2 63743  51.8789  85.2755 0010095  20.5202 142.7533 15.20840282 12427
KUIPER-00031            
1 63744U 25088W   25196.08730160  .00009646  00000+0  26870-3 0  9995
2 63744  51.8706  85.2955 0004162  38.5757 321.5527 15.37456142 12102
KUIPER-00032            
1 63745U 25088X   25195.71201132  .00012194  00000+0  33908-3 0  9999
2 63745  51.8681  87.2709 0005043  27.6152 332.5101 15.37239986 13040
KUIPER-00033            
1 63746U 25088Y   25196.58334491  .00009622  00000+0  12856-2 0  9991
2 63746  51.8992  95.0714 0004135 111.4237 177.1401 14.80056349 12486
KUIPER-00034            
1 63747U 25088Z   25196.06956905  .00008060  00000+0  22535-3 0  9996
2 63747  51.8715  85.1864 0002420  58.5594 301.5629 15.37586094 12267
